#cP2017  5 12  0  0  0.00000000      96 ORBIT IGS14 HLM  IGS
## 1948 432000.00000000   900.00000000 57885 0.0000000000000
+   31   G01G02G03G05G06G07G08G09G10G11G12G13G14G15G16G17G18
+        G19G20G21G22G23G24G25G26G27G28G29G30G31G32  0  0  0
+          0  0  0  0  0  0  0  0  0  0  0  0  0  0  0  0  0
+          0  0  0  0  0  0  0  0  0  0  0  0  0  0  0  0  0
+          0  0  0  0  0  0  0  0  0  0  0  0  0  0  0  0  0
++         2  2  2  2  2  2  3  2  2  2  2  2  2  2  2  2  2
++         2  2  2  2  2  2  2  2  2  2  2  2  2  2  0  0  0
++         0  0  0  0  0  0  0  0  0  0  0  0  0  0  0  0  0
++         0  0  0  0  0  0  0  0  0  0  0  0  0  0  0  0  0
++         0  0  0  0  0  0  0  0  0  0  0  0  0  0  0  0  0
%c G  cc GPS ccc cccc cccc cccc cccc ccccc ccccc ccccc ccccc
%c cc cc ccc ccc cccc cccc cccc cccc ccccc ccccc ccccc ccccc
%f  1.2500000  1.025000000  0.00000000000  0.000000000000000
%f  0.0000000  0.000000000  0.00000000000  0.000000000000000
%i    0    0    0    0      0      0      0      0         0
%i    0    0    0    0      0      0      0      0         0
/* RAPID ORBIT COMBINATION FROM WEIGHTED AVERAGE OF:        
/* cod emr esa gfz jpl ngs sio usn whu                      
/* REFERENCED TO IGS TIME (IGST) AND TO WEIGHTED MEAN POLE: 
/* PCV:IGS14_1930 OL/AL:FES2004  NONE     Y  ORB:CMB CLK:CMB
*  2017  5 12 12 45  0.00000000
PG01 -22273.236701 -13194.301569   6439.926691     54.554576  7  5  7  71       
PG02  11255.091757  20622.436546  13201.349308    421.209036  6  6  6  45       
PG03 -14137.561962  -6552.148092  21511.381456   -100.807728  8  5  5  72       
PG05   3801.063254  23988.034115 -10589.232653    -46.383409  6  7  7 111       
PG06  -3398.865533  16009.368682  20939.098178    349.880484  5  8  6  40       
PG07 -20139.736146  -1721.542561 -17277.780299    352.317528  8  5  4  99       
PG08 -15326.097160  -8863.375651 -19775.161183    -59.469683  8  9  7  93       
PG09 -25318.278137   7737.723918   2195.068686    361.680111  9  3  7  93       
PG10  10779.683054 -22208.746619  -9618.913971    -55.637541  8  4    126       
PG11 -23788.387727 -11119.430612  -4343.439448   -687.580480 10  7  6  86       
PG12  10752.202046  12879.614513  20482.926723    383.729733  9  7  6  98       
PG13   7340.659374  13573.336069 -21730.112047    -81.507253  7  4  1  51       
PG14   9907.538564 -16252.105176  18726.215258    -70.432011  7  6  6 107       
PG15  19183.286500   5970.664801 -17714.966104   -349.754321  6 11  6 123       
PG16   -796.521739 -24228.133027 -10488.157234     33.111793 10  3  8 115       
PG17 -18268.996520  14591.005678  12808.350274   -179.974488  7     6  62       
PG18  14335.425498 -14558.855272 -16281.628290    615.085791  8  5  7 103       
PG19 -12069.102468  15454.391622  17776.038521   -503.959215  4  2  1  52       
PG20  13917.050355  11363.423578 -19706.693695    471.909563  7  4  3 106       
PG21  16869.893242  -4657.470501 -19230.994465   -507.449928  5  6  2 106       
PG22 -11314.593480 -16463.767677  17724.832708     12.457923  6  4  7  73       
PG23 -23563.896493  -1212.515374  12857.153407   -211.636451  7  5  5  83       
PG24  22239.675732  14291.764357   3597.931005    -34.720926  8  2  4  94       
PG25  15242.751819  -3427.787355  21292.596181   -385.901624  7  5  4 118       
PG26   4443.248313 -26137.471288     83.040755   -505.183373  7  3  5 104       
PG27  -2822.174912 -14786.189698 -21919.868266    256.322925  5  6  5  84       
PG28 -13097.664215  19630.707122 -11556.890017    612.169754  8  4  5  95       
PG29  25736.130119  -4123.063101   5010.164662    604.954725  9  6  9 115       
PG30 -11502.757910  10417.295150 -21564.327933    157.033750  4  8  3  93       
PG31   2165.059014 -16913.048820  20328.008932    201.578099  3  6  4 101       
PG32  16953.012073 -15865.503856  12872.920603   -411.521574  8  4  6 115       
*  2017  5 12 13  0  0.00000000
PG01 -22598.536609 -13725.635175   3664.768944     54.554987  8  5  8  62       
PG02   9885.369514  19877.472632  15322.106896    421.201989  5  6  6  55       
PG03 -13730.607488  -8945.603972  20907.079032   -100.806197  8  5  5  77       
PG05   3385.928892  25005.772444  -8030.793080    -46.382133  3  6  7 100       
PG06  -5340.572131  14552.709861  21588.995523    349.885037  5  8  5  68       
PG07 -21500.117567  -3033.123360 -15412.552025    352.313475  8  5  5 105       
PG08 -13201.592457  -9821.863035 -20815.878498    -59.471328  7  9  6 109       
PG09 -25037.163570   7330.564748   4997.001330    361.687139  9  2  7  74       
PG10  10832.271649 -20938.309762 -12094.300741    -55.628959  8  5  2 117       
PG11 -23107.811125 -11349.045028  -6975.541447   -687.582885 10  7  6 107       
PG12  10220.282515  15109.585519  19220.663475    383.728969  9  7  5  77       
PG13   4957.430027  14235.533925 -21984.903270    -81.507798  6  5  2  70       
PG14  11865.430377 -16708.702340  17075.605353    -70.433369  7  7  6 103       
PG15  17380.171109   7009.283466 -19118.477351   -349.754956  6 11  6 115       
PG16   -388.843582 -25201.061163  -7814.971662     33.112528  9  3  8 113       
PG17 -19532.727259  14842.906310  10334.087546   -179.973106  7  1  6  50       
PG18  14354.151352 -12470.825605 -17882.756331    615.087375  7  4  8 100       
PG19 -13989.232419  15882.840708  15948.494794   -503.958117  5  3  2  68       
PG20  13657.641201  13522.128373 -18478.347855    471.911462  7  5  4  94       
PG21  18618.082401  -3185.728779 -17937.051791   -507.448335  7  6  2 107       
PG22 -10907.441492 -18335.024543  16033.677356     12.446928  6  4  7  55       
PG23 -22205.941844  -1977.180972  14999.046855   -211.637134  6  5  5  63       
PG24  22282.875405  14670.429830    801.406985    -34.721727  8  4  4  79       
PG25  14918.187128   -952.910630  21787.105516   -385.907499  7  5  5 108       
PG26   4685.381547 -25929.749563   2933.037834   -505.179654  7  3  5  98       
PG27   -515.653212 -15669.012761 -21457.459185    256.328836  5  6  5  79       
PG28 -12905.398325  18087.429113 -13922.311311    612.172933  8  5  4 102       
PG29  25101.658293  -3711.486638   7783.374051    604.951400  9  4  8  96       
PG30 -13314.653471   8764.221196 -21266.497987    157.032982  5  8  2  82       
PG31   4033.471436 -15452.489988  21224.363533    201.575886  5  6  5  91       
PG32  18274.098766 -16159.716025  10467.325353   -411.531048  9  4  6 114       
*  2017  5 12 13 15  0.00000000
PG01 -22693.987141 -14055.347724    827.453476     54.555405  8  6  7  94       
PG02   8294.530121  19085.597988  17191.117842    421.194978  4  6  7  90       
PG03 -13456.241820 -11268.280468  19943.192818   -100.804649  8  6  5  81       
PG05   3042.052723  25746.196054  -5332.906778    -46.380779     5  6 110       
PG06  -7399.953974  13171.414095  21868.162445    349.889596  4  8  4  74       
PG07 -22743.942107  -4134.754832 -13284.052444    352.309786  8  6  6  69       
PG08 -11041.902312 -10934.459178 -21497.357347    -59.472320  7  9  6  73       
PG09 -24495.720373   6774.590465   7712.945434    361.694183  8  3  7  84       
PG10  10927.767646 -19404.253386 -14360.024083    -55.620372  8  5  2  96       
PG11 -22161.153879 -11541.347134  -9489.140727   -687.585273 10  8  6  87       
PG12   9839.130236  17202.461100  17625.351250    383.728418  8  7  5  92       
PG13   2606.611493  15027.509343 -21865.480082    -81.508627  3  5  3  57       
PG14  13610.466780 -17196.354421  15134.925139    -70.434471  6  7  6  83       
PG15  15506.057991   8201.794718 -20200.703194   -349.755652  5 10  5 117       
PG16    -85.004399 -25886.344517  -5004.657764     33.113078  9  3  7  78       
PG17 -20515.829620  15052.295618   7683.194974   -179.971382  7  3  7 105       
PG18  14459.394124 -10218.285263 -19159.732705    615.089094  6  3  8  97       
PG19 -15668.685420  16340.702280  13844.640635   -503.956577  6  4  3  92       
PG20  13498.593408  15536.163355 -16935.624282    471.912649  8  4  5  93       
PG21  20288.012249  -1894.117970 -16315.921617   -507.446084  8  6  3  40       
PG22 -10595.752712 -20020.965067  14070.529572     12.436039  6  4  7  49       
PG23 -20685.294555  -2906.635067  16891.607311   -211.637616  7  5  4  75       
PG24  22081.760942  14873.458493  -2008.717260    -34.722400  7  4  4  39       
PG25  14725.145008   1568.575628  21900.856053   -385.913447  7  5  5 109       
PG26   4913.961830 -25415.256577   5732.279778   -505.175873  6  4  4  91       
PG27   1675.311634 -16645.324308 -20626.438908    256.334731  4  6  6  62       
PG28 -12758.040356  16275.799777 -16038.698925    612.175711  8  6  5  86       
PG29  24205.583509  -3151.191773  10422.341398    604.948544  9  3  8  88       
PG30 -15163.805985   7238.763826 -20603.445319    157.032185  6  8  2  64       
PG31   6038.172063 -14046.777204  21755.581823    201.574070  6  6  5 102       
PG32  19323.225934 -16400.295271   7881.278630   -411.540578 10  4  6  81       
EOF
